{
  "type": "FeatureCollection",
  "features": [
    {
      "type": "Feature",
      "properties": {
        "norad_id": 29780,
        "name": "FENGYUN 1C DEB",
        "group": "fengyun-1c-debris",
        "lat": 28.699681524897507,
        "lon": 82.38515458428184,
        "alt_km": 792.4059394670121,
        "timestamp": "2025-12-02T19:35:50.826997+00:00",
        "meta_object_name": "FENGYUN 1C DEB",
        "meta_object_id": "1999-025BW",
        "meta_epoch": "2025-12-02T05:22:14.964384",
        "meta_mean_motion": 14.20918939,
        "meta_eccentricity": 0.0039738,
        "meta_inclination": 99.2768,
        "meta_ra_of_asc_node": 256.6294,
        "meta_arg_of_pericenter": 159.168,
        "meta_mean_anomaly": 201.1125,
        "meta_ephemeris_type": 0,
        "meta_classification_type": "U",
        "meta_norad_cat_id": 29780,
        "meta_element_set_no": 999,
        "meta_rev_at_epoch": 96929,
        "meta_bstar": 0.0020729,
        "meta_mean_motion_dot": 4.477e-05,
        "meta_mean_motion_ddot": 0,
        "tle_line1": "1 29780U 99025BW  25336.22378431  .00004477  00000+0  20729-2 0  9993",
        "tle_line2": "2 29780  99.2768 256.6294 0039738 159.1680 201.1125 14.20918939969296"
      },
      "geometry": {
        "type": "Point",
        "coordinates": [
          82.38515458428184,
          28.699681524897507
        ]
      }
    },
    {
      "type": "Feature",
      "properties": {
        "norad_id": 29781,
        "name": "FENGYUN 1C DEB",
        "group": "fengyun-1c-debris",
        "lat": -53.572316929012224,
        "lon": -16.613105623724532,
        "alt_km": 895.520824473273,
        "timestamp": "2025-12-02T19:35:50.827007+00:00",
        "meta_object_name": "FENGYUN 1C DEB",
        "meta_object_id": "1999-025BX",
        "meta_epoch": "2025-12-02T10:23:26.022048",
        "meta_mean_motion": 14.05194771,
        "meta_eccentricity": 0.0071552,
        "meta_inclination": 98.8102,
        "meta_ra_of_asc_node": 330.8835,
        "meta_arg_of_pericenter": 202.0664,
        "meta_mean_anomaly": 323.1548,
        "meta_ephemeris_type": 0,
        "meta_classification_type": "U",
        "meta_norad_cat_id": 29781,
        "meta_element_set_no": 999,
        "meta_rev_at_epoch": 96498,
        "meta_bstar": 0.00076839,
        "meta_mean_motion_dot": 1.227e-05,
        "meta_mean_motion_ddot": 0,
        "tle_line1": "1 29781U 99025BX  25336.43294007  .00001227  00000+0  76839-3 0  9997",
        "tle_line2": "2 29781  98.8102 330.8835 0071552 202.0664 323.1548 14.05194771964988"
      },
      "geometry": {
        "type": "Point",
        "coordinates": [
          -16.613105623724532,
          -53.572316929012224
        ]
      }
    },
    {
      "type": "Feature",
      "properties": {
        "norad_id": 29782,
        "name": "FENGYUN 1C DEB",
        "group": "fengyun-1c-debris",
        "lat": 65.79226159764461,
        "lon": -128.83724652198939,
        "alt_km": 865.8579457755932,
        "timestamp": "2025-12-02T19:35:50.827017+00:00",
        "meta_object_name": "FENGYUN 1C DEB",
        "meta_object_id": "1999-025BY",
        "meta_epoch": "2025-12-02T09:08:30.052896",
        "meta_mean_motion": 14.1157994,
        "meta_eccentricity": 0.005494,
        "meta_inclination": 99.1017,
        "meta_ra_of_asc_node": 29.8315,
        "meta_arg_of_pericenter": 231.5017,
        "meta_mean_anomaly": 188.8885,
        "meta_ephemeris_type": 0,
        "meta_classification_type": "U",
        "meta_norad_cat_id": 29782,
        "meta_element_set_no": 999,
        "meta_rev_at_epoch": 96525,
        "meta_bstar": 0.0018125,
        "meta_mean_motion_dot": 3.294e-05,
        "meta_mean_motion_ddot": 0,
        "tle_line1": "1 29782U 99025BY  25336.38090339  .00003294  00000+0  18125-2 0  9993",
        "tle_line2": "2 29782  99.1017  29.8315 0054940 231.5017 188.8885 14.11579940965250"
      },
      "geometry": {
        "type": "Point",
        "coordinates": [
          -128.83724652198939,
          65.79226159764461
        ]
      }
    },
    {
      "type": "Feature",
      "properties": {
        "norad_id": 29784,
        "name": "FENGYUN 1C DEB",
        "group": "fengyun-1c-debris",
        "lat": -49.06625478554063,
        "lon": -94.2051703145223,
        "alt_km": 755.4642354476728,
        "timestamp": "2025-12-02T19:35:50.827028+00:00",
        "meta_object_name": "FENGYUN 1C DEB",
        "meta_object_id": "1999-025CA",
        "meta_epoch": "2025-12-02T08:39:15.808896",
        "meta_mean_motion": 14.30531039,
        "meta_eccentricity": 0.0060026,
        "meta_inclination": 98.9446,
        "meta_ra_of_asc_node": 254.8631,
        "meta_arg_of_pericenter": 327.8933,
        "meta_mean_anomaly": 155.6619,
        "meta_ephemeris_type": 0,
        "meta_classification_type": "U",
        "meta_norad_cat_id": 29784,
        "meta_element_set_no": 999,
        "meta_rev_at_epoch": 98211,
        "meta_bstar": 0.0007932,
        "meta_mean_motion_dot": 2.062e-05,
        "meta_mean_motion_ddot": 0,
        "tle_line1": "1 29784U 99025CA  25336.36059964  .00002062  00000+0  79320-3 0  9999",
        "tle_line2": "2 29784  98.9446 254.8631 0060026 327.8933 155.6619 14.30531039982113"
      },
      "geometry": {
        "type": "Point",
        "coordinates": [
          -94.2051703145223,
          -49.06625478554063
        ]
      }
    },
    {
      "type": "Feature",
      "properties": {
        "norad_id": 29786,
        "name": "FENGYUN 1C DEB",
        "group": "fengyun-1c-debris",
        "lat": -62.97454833164106,
        "lon": 11.881317595385628,
        "alt_km": 824.0369995569827,
        "timestamp": "2025-12-02T19:35:50.827039+00:00",
        "meta_object_name": "FENGYUN 1C DEB",
        "meta_object_id": "1999-025CC",
        "meta_epoch": "2025-12-02T01:15:45.212832",
        "meta_mean_motion": 14.09073244,
        "meta_eccentricity": 0.00773682,
        "meta_inclination": 98.7365,
        "meta_ra_of_asc_node": 353.5953,
        "meta_arg_of_pericenter": 333.5634,
        "meta_mean_anomaly": 49.5584,
        "meta_ephemeris_type": 0,
        "meta_classification_type": "U",
        "meta_norad_cat_id": 29786,
        "meta_element_set_no": 999,
        "meta_rev_at_epoch": 97010,
        "meta_bstar": 0.00025684614,
        "meta_mean_motion_dot": 4.15e-06,
        "meta_mean_motion_ddot": 0,
        "tle_line1": "1 29786U 99025CC  25336.05260663  .00000415  00000+0  25685-3 0  9992",
        "tle_line2": "2 29786  98.7365 353.5953 0077368 333.5634  49.5584 14.09073244970109"
      },
      "geometry": {
        "type": "Point",
        "coordinates": [
          11.881317595385628,
          -62.97454833164106
        ]
      }
    },
    {
      "type": "Feature",
      "properties": {
        "norad_id": 29788,
        "name": "FENGYUN 1C DEB",
        "group": "fengyun-1c-debris",
        "lat": -9.698993624242048,
        "lon": 49.93196222239719,
        "alt_km": 830.772459605012,
        "timestamp": "2025-12-02T19:35:50.827049+00:00",
        "meta_object_name": "FENGYUN 1C DEB",
        "meta_object_id": "1999-025CE",
        "meta_epoch": "2025-12-02T04:46:33.714048",
        "meta_mean_motion": 14.25836723,
        "meta_eccentricity": 0.00427222,
        "meta_inclination": 98.7855,
        "meta_ra_of_asc_node": 47.7985,
        "meta_arg_of_pericenter": 218.6985,
        "meta_mean_anomaly": 203.094,
        "meta_ephemeris_type": 0,
        "meta_classification_type": "U",
        "meta_norad_cat_id": 29788,
        "meta_element_set_no": 999,
        "meta_rev_at_epoch": 97205,
        "meta_bstar": 0.0020663208,
        "meta_mean_motion_dot": 4.92e-05,
        "meta_mean_motion_ddot": 0,
        "tle_line1": "1 29788U 99025CE  25336.19900132  .00004920  00000+0  20663-2 0  9996",
        "tle_line2": "2 29788  98.7855  47.7985 0042722 218.6985 203.0940 14.25836723972056"
      },
      "geometry": {
        "type": "Point",
        "coordinates": [
          49.93196222239719,
          -9.698993624242048
        ]
      }
    },
    {
      "type": "Feature",
      "properties": {
        "norad_id": 29789,
        "name": "FENGYUN 1C DEB",
        "group": "fengyun-1c-debris",
        "lat": 9.388160325971231,
        "lon": -18.391508262133346,
        "alt_km": 1207.415411721001,
        "timestamp": "2025-12-02T19:35:50.827059+00:00",
        "meta_object_name": "FENGYUN 1C DEB",
        "meta_object_id": "1999-025CF",
        "meta_epoch": "2025-12-02T11:46:32.986848",
        "meta_mean_motion": 13.54202526,
        "meta_eccentricity": 0.0298398,
        "meta_inclination": 99.4521,
        "meta_ra_of_asc_node": 159.7183,
        "meta_arg_of_pericenter": 304.6585,
        "meta_mean_anomaly": 80.247,
        "meta_ephemeris_type": 0,
        "meta_classification_type": "U",
        "meta_norad_cat_id": 29789,
        "meta_element_set_no": 999,
        "meta_rev_at_epoch": 92849,
        "meta_bstar": 0.0016412,
        "meta_mean_motion_dot": 1.437e-05,
        "meta_mean_motion_ddot": 0,
        "tle_line1": "1 29789U 99025CF  25336.49065957  .00001437  00000+0  16412-2 0  9994",
        "tle_line2": "2 29789  99.4521 159.7183 0298398 304.6585  80.2470 13.54202526928494"
      },
      "geometry": {
        "type": "Point",
        "coordinates": [
          -18.391508262133346,
          9.388160325971231
        ]
      }
    }
  ]
}